NORAD_CAT_ID,OBJECT_NAME,OBJECT_TYPE,EPOCH,MEAN_MOTION,ECCENTRICITY,INCLINATION,RA_OF_ASC_NODE,ARG_OF_PERICENTER,MEAN_ANOMALY,BSTAR,MEAN_MOTION_DOT,MEAN_MOTION_DDOT,TLE_LINE0,TLE_LINE1,TLE_LINE2,SEMIMAJOR_AXIS,PERIOD,APOGEE,PERIGEE,DECAYED
56771.0,STARLINK-6339,PAYLOAD,2024-03-22 00:42:54,14.9834368,0.0003039,69.9982,314.0993,269.6969,90.3841,2.5457e-05,2.11e-06,0.0,0 STARLINK-6339,1 56771U 23078E   24082.02979167  .00000211  00000-0  25457-4 0  9994,2 56771  69.9982 314.0993 0003039 269.6969  90.3841 14.98343680 46429,6950.151,96.106,574.128,569.903,0.0
56771.0,STARLINK-6339,PAYLOAD,2024-03-22 19:56:31,14.98326429,0.0002923,69.9982,312.0779,261.2818,98.8009,8.6703e-05,9.42e-06,0.0,0 STARLINK-6339,1 56771U 23078E   24082.83091893  .00000942  00000-0  86703-4 0  9996,2 56771  69.9982 312.0779 0002923 261.2818  98.8009 14.98326429 46545,6950.204,96.107,574.1,570.037,0.0
56771.0,STARLINK-6339,PAYLOAD,2024-03-22 21:32:39,14.98325499,0.0002918,69.9983,311.9099,260.7488,99.3341,7.9143e-05,8.51e-06,0.0,0 STARLINK-6339,1 56771U 23078E   24082.89767986  .00000851  00000-0  79143-4 0  9994,2 56771  69.9983 311.9099 0002918 260.7488  99.3341 14.98325499 46293,6950.207,96.107,574.1,570.044,0.0
56771.0,STARLINK-6339,PAYLOAD,2024-03-23 21:34:40,14.98325186,0.0002911,69.9987,309.3851,267.98,92.1025,-2.9023e-05,-4.39e-06,0.0,0 STARLINK-6339,1 56771U 23078E   24083.89908515 -.00000439  00000-0 -29023-4 0  9996,2 56771  69.9987 309.3851 0002911 267.9800  92.1025 14.98325186 46703,6950.208,96.107,574.096,570.05,0.0
56771.0,STARLINK-6339,PAYLOAD,2024-03-24 08:47:37,14.98330043,0.0002656,69.9988,308.205,270.6996,89.3859,-9.9923e-05,-1.285e-05,0.0,0 STARLINK-6339,1 56771U 23078E   24084.36640430 -.00001285  00000-0 -99923-4 0  9994,2 56771  69.9988 308.2050 0002656 270.6996  89.3859 14.98330043 46516,6950.193,96.107,573.904,570.212,0.0
56771.0,STARLINK-6339,PAYLOAD,2024-03-24 21:36:41,14.98327197,0.0002657,69.9987,306.8593,266.2769,93.8087,1.9979e-05,1.45e-06,0.0,0 STARLINK-6339,1 56771U 23078E   24084.90048402  .00000145  00000-0  19979-4 0  9990,2 56771  69.9987 306.8593 0002657 266.2769  93.8087 14.98327197 46857,6950.202,96.107,573.913,570.22,0.0
56771.0,STARLINK-6339,PAYLOAD,2024-03-25 21:38:42,14.98333156,0.0002981,69.9983,304.3336,268.8804,91.2013,0.00015637,1.773e-05,0.0,0 STARLINK-6339,1 56771U 23078E   24085.90187526  .00001773  00000-0  15637-3 0  9996,2 56771  69.9983 304.3336 0002981 268.8804  91.2013 14.98333156 46740,6950.183,96.107,574.12,569.976,0.0
56771.0,STARLINK-6339,PAYLOAD,2024-03-26 00:50:58,14.98332945,0.0002512,69.9996,303.9983,259.0598,101.0279,0.0001711,1.949e-05,0.0,0 STARLINK-6339,1 56771U 23078E   24086.03539466  .00001949  00000-0  17110-3 0  9998,2 56771  69.9996 303.9983 0002512 259.0598 101.0279 14.98332945 47020,6950.184,96.107,573.795,570.303,0.0
56771.0,STARLINK-6339,PAYLOAD,2024-03-26 15:16:11,14.98324199,0.0002519,69.9988,302.4824,278.7808,81.3066,6.1292e-05,6.38e-06,0.0,0 STARLINK-6339,1 56771U 23078E   24086.63624504  .00000638  00000-0  61292-4 0  9997,2 56771  69.9988 302.4824 0002519 278.7808  81.3066 14.98324199 46854,6950.211,96.107,573.827,570.325,0.0
56771.0,STARLINK-6339,PAYLOAD,2024-03-26 20:04:36,14.98318462,0.0003144,69.9982,301.9767,275.2397,84.8403,3.3981e-05,3.12e-06,0.0,0 STARLINK-6339,1 56771U 23078E   24086.83652929  .00000312  00000-0  33981-4 0  9994,2 56771  69.9982 301.9767 0003144 275.2397  84.8403 14.98318462 47140,6950.229,96.108,574.279,569.908,0.0
56771.0,STARLINK-6339,PAYLOAD,2024-03-26 21:40:44,14.9831744,0.0002804,69.9996,301.8106,272.3744,87.7094,-1.3142e-05,-2.5e-06,0.0,0 STARLINK-6339,1 56771U 23078E   24086.90329210 -.00000250  00000-0 -13142-4 0  9996,2 56771  69.9996 301.8106 0002804 272.3744  87.7094 14.98317440 46891,6950.232,96.108,574.046,570.148,0.0
56771.0,STARLINK-6339,PAYLOAD,2024-03-27 00:53:04,14.98270898,0.0003505,69.9989,301.4719,270.2245,89.8512,-0.00051904,-6.271e-05,0.0,0 STARLINK-6339,1 56771U 23078E   24087.03685274 -.00006271  00000-0 -51904-3 0  9992,2 56771  69.9989 301.4719 0003505 270.2245  89.8512 14.98270898 47176,6950.376,96.111,574.677,569.805,0.0
56771.0,STARLINK-6339,PAYLOAD,2024-03-27 07:17:39,14.98261627,0.0003158,69.9988,300.7982,275.298,84.7819,-0.001435,-0.00017143,0.0,0 STARLINK-6339,1 56771U 23078E   24087.30393294 -.00017143  00000-0 -14350-2 0  9993,2 56771  69.9988 300.7982 0003158 275.2980  84.7819 14.98261627 47213,6950.404,96.111,574.464,570.074,0.0
56771.0,STARLINK-6339,PAYLOAD,2024-03-27 20:06:38,14.98325608,0.0003016,69.9995,299.4513,283.6602,76.4221,5.457e-05,5.58e-06,0.0,0 STARLINK-6339,1 56771U 23078E   24087.83794545  .00000558  00000-0  54570-4 0  9995,2 56771  69.9995 299.4513 0003016 283.6602  76.4221 14.98325608 47295,6950.206,96.107,574.168,569.975,0.0
56771.0,STARLINK-6339,PAYLOAD,2024-03-27 21:42:46,14.98331422,0.0002736,69.9996,299.2848,279.6205,80.4645,1.8163e-05,1.24e-06,0.0,0 STARLINK-6339,1 56771U 23078E   24087.90470309  .00000124  00000-0  18163-4 0  9999,2 56771  69.9996 299.2848 0002736 279.6205  80.4645 14.98331422 47046,6950.188,96.107,573.955,570.152,0.0
56771.0,STARLINK-6339,PAYLOAD,2024-03-28 13:44:06,14.98324228,0.0003294,69.9987,297.5987,286.1661,73.9136,0.00032328,3.766e-05,0.0,0 STARLINK-6339,1 56771U 23078E   24088.57229836  .00003766  00000-0  32328-3 0  9993,2 56771  69.9987 297.5987 0003294 286.1661  73.9136 14.98324228 47149,6950.211,96.107,574.365,569.786,0.0
56771.0,STARLINK-6339,PAYLOAD,2024-03-28 20:08:38,14.98336362,0.0003119,69.9986,296.9269,278.2546,81.826,0.00024746,2.861e-05,0.0,0 STARLINK-6339,1 56771U 23078E   24088.83933304  .00002861  00000-0  24746-3 0  9994,2 56771  69.9986 296.9269 0003119 278.2546  81.8260 14.98336362 47445,6950.173,96.107,574.206,569.87,0.0
56771.0,STARLINK-6339,PAYLOAD,2024-03-28 21:44:46,14.98336977,0.0002654,69.9993,296.7595,279.5866,80.4993,0.00028724,3.337e-05,0.0,0 STARLINK-6339,1 56771U 23078E   24088.90609222  .00003337  00000-0  28724-3 0  9990,2 56771  69.9993 296.7595 0002654 279.5866  80.4993 14.98336977 47197,6950.171,96.107,573.881,570.192,0.0
56771.0,STARLINK-6339,PAYLOAD,2024-03-29 07:21:34,14.98328337,0.0002664,69.9997,295.7489,300.2986,59.7909,0.00043002,5.041e-05,0.0,0 STARLINK-6339,1 56771U 23078E   24089.30665499  .00005041  00000-0  43002-3 0  9993,2 56771  69.9997 295.7489 0002664 300.2986  59.7909 14.98328337 47252,6950.198,96.107,573.915,570.212,0.0
56771.0,STARLINK-6339,PAYLOAD,2024-03-29 20:10:38,14.98353182,0.0002718,69.9995,294.4027,285.8756,74.2104,0.00010314,1.139e-05,0.0,0 STARLINK-6339,1 56771U 23078E   24089.84072671  .00001139  00000-0  10314-3 0  9990,2 56771  69.9995 294.4027 0002718 285.8756  74.2104 14.98353182 47599,6950.121,96.106,573.875,570.097,0.0
56771.0,STARLINK-6339,PAYLOAD,2024-03-29 21:46:46,14.98352413,0.0002738,69.9995,294.2343,285.7529,74.3328,8.9612e-05,9.77e-06,0.0,0 STARLINK-6339,1 56771U 23078E   24089.90748647  .00000977  00000-0  89612-4 0  9997,2 56771  69.9995 294.2343 0002738 285.7529  74.3328 14.98352413 47345,6950.124,96.106,573.892,570.086,0.0
56771.0,STARLINK-6339,PAYLOAD,2024-03-30 13:48:07,14.98348733,0.0002603,70.0019,292.5512,287.7233,72.3641,-0.00023457,-2.892e-05,0.0,0 STARLINK-6339,1 56771U 23078E   24090.57508994 -.00002892  00000-0 -23457-3 0  9995,2 56771  70.0019 292.5512 0002603 287.7233  72.3641 14.98348733 47446,6950.135,96.106,573.809,570.191,0.0
56771.0,STARLINK-6339,PAYLOAD,2024-03-30 20:12:39,14.98342183,0.0002805,70.0026,291.8773,284.4176,75.6671,-0.0001569,-1.965e-05,0.0,0 STARLINK-6339,1 56771U 23078E   24090.84212833 -.00001965  00000-0 -15690-3 0  9999,2 56771  70.0026 291.8773 0002805 284.4176  75.6671 14.98342183 47744,6950.155,96.106,573.97,570.071,0.0
56771.0,STARLINK-6339,PAYLOAD,2024-03-30 21:48:48,14.98340004,0.0002892,70.0029,291.7092,284.3708,75.713,-0.00017677,-2.202e-05,0.0,0 STARLINK-6339,1 56771U 23078E   24090.90888971 -.00002202  00000-0 -17677-3 0  9990,2 56771  70.0029 291.7092 0002892 284.3708  75.7130 14.98340004 47499,6950.162,96.106,574.037,570.017,0.0
56771.0,STARLINK-6339,PAYLOAD,2024-03-31 13:50:07,14.98342545,0.0002769,70.0002,290.0265,283.2583,76.8267,-0.00012278,-1.558e-05,0.0,0 STARLINK-6339,1 56771U 23078E   24091.57648051 -.00001558  00000-0 -12278-3 0  9992,2 56771  70.0002 290.0265 0002769 283.2583  76.8267 14.98342545 47592,6950.154,96.106,573.944,570.095,0.0
56771.0,STARLINK-6339,PAYLOAD,2024-03-31 20:14:39,14.98451788,0.0002247,70.0,289.353,268.8049,91.2853,-0.0018663,-0.0002236,0.0,0 STARLINK-6339,1 56771U 23078E   24091.84351078 -.00022360  00000-0 -18663-2 0  9999,2 56771  70.0000 289.3530 0002247 268.8049  91.2853 14.98451788 47898,6949.816,96.099,573.243,570.12,0.0
56771.0,STARLINK-6339,PAYLOAD,2024-03-31 21:50:47,14.9843295,0.0002174,70.0,289.1847,271.2632,88.8278,-0.0015875,-0.00019033,0.0,0 STARLINK-6339,1 56771U 23078E   24091.91026910 -.00019033  00000-0 -15875-2 0  9996,2 56771  70.0000 289.1847 0002174 271.2632  88.8278 14.98432950 47648,6949.875,96.1,573.25,570.229,0.0
56771.0,STARLINK-6339,PAYLOAD,2024-03-31 23:26:55,14.98345498,0.0002752,69.9998,289.0164,282.7151,77.37,-0.00012316,-1.563e-05,0.0,0 STARLINK-6339,1 56771U 23078E   24091.97703564 -.00001563  00000-0 -12316-3 0  9996,2 56771  69.9998 289.0164 0002752 282.7151  77.3700 14.98345498 47910,6950.145,96.106,573.923,570.097,0.0
56771.0,STARLINK-6339,PAYLOAD,2024-04-01 12:16:01,14.98326566,0.0002695,69.9997,287.6696,282.5888,77.497,-4.0547e-05,-5.77e-06,0.0,0 STARLINK-6339,1 56771U 23078E   24092.51112305 -.00000577  00000-0 -40547-4 0  9996,2 56771  69.9997 287.6696 0002695 282.5888  77.4970 14.98326566 47997,6950.204,96.107,573.942,570.195,0.0
56771.0,STARLINK-6339,PAYLOAD,2024-04-01 13:52:09,14.98327126,0.000271,69.9998,287.5013,282.3132,77.7724,-3.6017e-05,-5.23e-06,0.0,0 STARLINK-6339,1 56771U 23078E   24092.57788259 -.00000523  00000-0 -36017-4 0  9997,2 56771  69.9998 287.5013 0002710 282.3132  77.7724 14.98327126 47744,6950.202,96.107,573.95,570.183,0.0
